CCSDS_OMM_VERS = 2.0
CREATION_DATE  = 
ORIGINATOR     = 

OBJECT_NAME    = STARLINK-36419
OBJECT_ID      = 2026-016Z
CENTER_NAME    = EARTH
REF_FRAME      = TEME
TIME_SYSTEM    = UTC
MEAN_ELEMENT_THEORY = SGP/SGP4

EPOCH          = 2026-02-07T14:00:01.999872
MEAN_MOTION    = 15.80786268
ECCENTRICITY   = .00014543
INCLINATION    = 97.2763
RA_OF_ASC_NODE = 97.5427
ARG_OF_PERICENTER = 83.6597
MEAN_ANOMALY   = 200.9248

EPHEMERIS_TYPE = 0
CLASSIFICATION_TYPE = U
NORAD_CAT_ID   = 67584
ELEMENT_SET_NO = 999
REV_AT_EPOCH   = 321
BSTAR          = .42327792E-3
MEAN_MOTION_DOT = .81587E-3
MEAN_MOTION_DDOT = 0

CCSDS_OMM_VERS = 2.0
CREATION_DATE  = 
ORIGINATOR     = 

OBJECT_NAME    = STARLINK-36560
OBJECT_ID      = 2026-016AA
CENTER_NAME    = EARTH
REF_FRAME      = TEME
TIME_SYSTEM    = UTC
MEAN_ELEMENT_THEORY = SGP/SGP4

EPOCH          = 2026-02-07T14:00:01.999872
MEAN_MOTION    = 15.80772105
ECCENTRICITY   = .00005939
INCLINATION    = 97.2760
RA_OF_ASC_NODE = 97.5465
ARG_OF_PERICENTER = 105.5268
MEAN_ANOMALY   = 188.8401

EPHEMERIS_TYPE = 0
CLASSIFICATION_TYPE = U
NORAD_CAT_ID   = 67585
ELEMENT_SET_NO = 999
REV_AT_EPOCH   = 315
BSTAR          = .62085231E-3
MEAN_MOTION_DOT = .120189E-2
MEAN_MOTION_DDOT = 0

CCSDS_OMM_VERS = 2.0
CREATION_DATE  = 
ORIGINATOR     = 

OBJECT_NAME    = CZ-2C DEB
OBJECT_ID      = 2026-009C
CENTER_NAME    = EARTH
REF_FRAME      = TEME
TIME_SYSTEM    = UTC
MEAN_ELEMENT_THEORY = SGP/SGP4

EPOCH          = 2026-02-07T14:23:45.760416
MEAN_MOTION    = 15.12038741
ECCENTRICITY   = .01111814
INCLINATION    = 97.2266
RA_OF_ASC_NODE = 112.1388
ARG_OF_PERICENTER = 141.0366
MEAN_ANOMALY   = 219.8944

EPHEMERIS_TYPE = 0
CLASSIFICATION_TYPE = U
NORAD_CAT_ID   = 67586
ELEMENT_SET_NO = 999
REV_AT_EPOCH   = 353
BSTAR          = .39795319E-2
MEAN_MOTION_DOT = .8016E-3
MEAN_MOTION_DDOT = 0

CCSDS_OMM_VERS = 2.0
CREATION_DATE  = 
ORIGINATOR     = 

OBJECT_NAME    = CZ-2C DEB
OBJECT_ID      = 2026-009D
CENTER_NAME    = EARTH
REF_FRAME      = TEME
TIME_SYSTEM    = UTC
MEAN_ELEMENT_THEORY = SGP/SGP4

EPOCH          = 2026-02-07T04:12:45.855936
MEAN_MOTION    = 15.13487858
ECCENTRICITY   = .01078338
INCLINATION    = 97.6720
RA_OF_ASC_NODE = 113.0106
ARG_OF_PERICENTER = 148.0195
MEAN_ANOMALY   = 212.7642

EPHEMERIS_TYPE = 0
CLASSIFICATION_TYPE = U
NORAD_CAT_ID   = 67587
ELEMENT_SET_NO = 999
REV_AT_EPOCH   = 347
BSTAR          = .30481231E-2
MEAN_MOTION_DOT = .63379E-3
MEAN_MOTION_DDOT = 0

CCSDS_OMM_VERS = 2.0
CREATION_DATE  = 
ORIGINATOR     = 

OBJECT_NAME    = NAVSTAR 85 (USA 581)
OBJECT_ID      = 2026-017A
CENTER_NAME    = EARTH
REF_FRAME      = TEME
TIME_SYSTEM    = UTC
MEAN_ELEMENT_THEORY = SGP/SGP4

EPOCH          = 2026-02-06T13:41:30.040512
MEAN_MOTION    = 2.00561517
ECCENTRICITY   = .00008655
INCLINATION    = 55.0007
RA_OF_ASC_NODE = 93.9975
ARG_OF_PERICENTER = 80.8749
MEAN_ANOMALY   = 279.2003

EPHEMERIS_TYPE = 0
CLASSIFICATION_TYPE = U
NORAD_CAT_ID   = 67588
ELEMENT_SET_NO = 999
REV_AT_EPOCH   = 42899
BSTAR          = 0
MEAN_MOTION_DOT = -.33E-6
MEAN_MOTION_DDOT = 0

CCSDS_OMM_VERS = 2.0
CREATION_DATE  = 
ORIGINATOR     = 

OBJECT_NAME    = STARLINK-36641
OBJECT_ID      = 2026-018A
CENTER_NAME    = EARTH
REF_FRAME      = TEME
TIME_SYSTEM    = UTC
MEAN_ELEMENT_THEORY = SGP/SGP4

EPOCH          = 2026-02-07T14:00:01.999872
MEAN_MOTION    = 15.88737250
ECCENTRICITY   = .00013409
INCLINATION    = 97.2803
RA_OF_ASC_NODE = 102.7986
ARG_OF_PERICENTER = 91.5460
MEAN_ANOMALY   = 191.6931

EPHEMERIS_TYPE = 0
CLASSIFICATION_TYPE = U
NORAD_CAT_ID   = 67589
ELEMENT_SET_NO = 999
REV_AT_EPOCH   = 250
BSTAR          = -.67462937E-2
MEAN_MOTION_DOT = -.164977E-1
MEAN_MOTION_DDOT = 0

CCSDS_OMM_VERS = 2.0
CREATION_DATE  = 
ORIGINATOR     = 

OBJECT_NAME    = STARLINK-36376
OBJECT_ID      = 2026-018B
CENTER_NAME    = EARTH
REF_FRAME      = TEME
TIME_SYSTEM    = UTC
MEAN_ELEMENT_THEORY = SGP/SGP4

EPOCH          = 2026-02-07T14:00:01.999872
MEAN_MOTION    = 15.88921592
ECCENTRICITY   = .0001327
INCLINATION    = 97.2799
RA_OF_ASC_NODE = 102.8002
ARG_OF_PERICENTER = 89.1548
MEAN_ANOMALY   = 197.8084

EPHEMERIS_TYPE = 0
CLASSIFICATION_TYPE = U
NORAD_CAT_ID   = 67590
ELEMENT_SET_NO = 999
REV_AT_EPOCH   = 255
BSTAR          = -.66740222E-2
MEAN_MOTION_DOT = -.164761E-1
MEAN_MOTION_DDOT = 0

CCSDS_OMM_VERS = 2.0
CREATION_DATE  = 
ORIGINATOR     = 

OBJECT_NAME    = STARLINK-36391
OBJECT_ID      = 2026-018C
CENTER_NAME    = EARTH
REF_FRAME      = TEME
TIME_SYSTEM    = UTC
MEAN_ELEMENT_THEORY = SGP/SGP4

EPOCH          = 2026-02-07T14:00:01.999872
MEAN_MOTION    = 15.89144907
ECCENTRICITY   = .00013072
INCLINATION    = 97.2798
RA_OF_ASC_NODE = 102.8021
ARG_OF_PERICENTER = 98.5664
MEAN_ANOMALY   = 192.7855

EPHEMERIS_TYPE = 0
CLASSIFICATION_TYPE = U
NORAD_CAT_ID   = 67591
ELEMENT_SET_NO = 999
REV_AT_EPOCH   = 255
BSTAR          = -.65869719E-2
MEAN_MOTION_DOT = -.1644912E-1
MEAN_MOTION_DDOT = 0

CCSDS_OMM_VERS = 2.0
CREATION_DATE  = 
ORIGINATOR     = 

OBJECT_NAME    = STARLINK-36603
OBJECT_ID      = 2026-018D
CENTER_NAME    = EARTH
REF_FRAME      = TEME
TIME_SYSTEM    = UTC
MEAN_ELEMENT_THEORY = SGP/SGP4

EPOCH          = 2026-02-07T14:00:01.999872
MEAN_MOTION    = 15.89287636
ECCENTRICITY   = .00013234
INCLINATION    = 97.2797
RA_OF_ASC_NODE = 102.8032
ARG_OF_PERICENTER = 97.4735
MEAN_ANOMALY   = 196.8945

EPHEMERIS_TYPE = 0
CLASSIFICATION_TYPE = U
NORAD_CAT_ID   = 67592
ELEMENT_SET_NO = 999
REV_AT_EPOCH   = 251
BSTAR          = -.65133027E-2
MEAN_MOTION_DOT = -.1639138E-1
MEAN_MOTION_DDOT = 0

CCSDS_OMM_VERS = 2.0
CREATION_DATE  = 
ORIGINATOR     = 

OBJECT_NAME    = STARLINK-36634
OBJECT_ID      = 2026-018E
CENTER_NAME    = EARTH
REF_FRAME      = TEME
TIME_SYSTEM    = UTC
MEAN_ELEMENT_THEORY = SGP/SGP4

EPOCH          = 2026-02-07T14:00:01.999872
MEAN_MOTION    = 15.89517466
ECCENTRICITY   = .00013478
INCLINATION    = 97.2795
RA_OF_ASC_NODE = 102.8052
ARG_OF_PERICENTER = 88.5035
MEAN_ANOMALY   = 210.4139

EPHEMERIS_TYPE = 0
CLASSIFICATION_TYPE = U
NORAD_CAT_ID   = 67593
ELEMENT_SET_NO = 999
REV_AT_EPOCH   = 250
BSTAR          = -.64163827E-2
MEAN_MOTION_DOT = -.1846507E-1
MEAN_MOTION_DDOT = .91557594E-3

CCSDS_OMM_VERS = 2.0
CREATION_DATE  = 
ORIGINATOR     = 

OBJECT_NAME    = STARLINK-36638
OBJECT_ID      = 2026-018F
CENTER_NAME    = EARTH
REF_FRAME      = TEME
TIME_SYSTEM    = UTC
MEAN_ELEMENT_THEORY = SGP/SGP4

EPOCH          = 2026-02-07T14:00:01.999872
MEAN_MOTION    = 15.89734817
ECCENTRICITY   = .00013419
INCLINATION    = 97.2793
RA_OF_ASC_NODE = 102.8070
ARG_OF_PERICENTER = 88.7406
MEAN_ANOMALY   = 214.5295

EPHEMERIS_TYPE = 0
CLASSIFICATION_TYPE = U
NORAD_CAT_ID   = 67594
ELEMENT_SET_NO = 999
REV_AT_EPOCH   = 250
BSTAR          = -.63191316E-2
MEAN_MOTION_DOT = -.1838474E-1
MEAN_MOTION_DDOT = .91010504E-3

CCSDS_OMM_VERS = 2.0
CREATION_DATE  = 
ORIGINATOR     = 

OBJECT_NAME    = STARLINK-36628
OBJECT_ID      = 2026-018G
CENTER_NAME    = EARTH
REF_FRAME      = TEME
TIME_SYSTEM    = UTC
MEAN_ELEMENT_THEORY = SGP/SGP4

EPOCH          = 2026-02-07T14:00:01.999872
MEAN_MOTION    = 15.89894939
ECCENTRICITY   = .00012923
INCLINATION    = 97.2788
RA_OF_ASC_NODE = 102.8082
ARG_OF_PERICENTER = 93.3239
MEAN_ANOMALY   = 213.1967

EPHEMERIS_TYPE = 0
CLASSIFICATION_TYPE = U
NORAD_CAT_ID   = 67595
ELEMENT_SET_NO = 999
REV_AT_EPOCH   = 250
BSTAR          = -.62725738E-2
MEAN_MOTION_DOT = -.1839594E-1
MEAN_MOTION_DDOT = .91257839E-3

