STARLINK-36419          
1 67584U 26016Z   26038.58335648  .00081587  00000+0  42328-3 0  9996
2 67584  97.2763  97.5427 0001454  83.6597 200.9248 15.80786268  3214
STARLINK-36560          
1 67585U 26016AA  26038.58335648  .00120189  00000+0  62085-3 0  9991
2 67585  97.2760  97.5465 0000593 105.5268 188.8401 15.80772105  3159
CZ-2C DEB               
1 67586U 26009C   26038.59983519  .00080160  00000+0  39795-2 0  9996
2 67586  97.2266 112.1388 0111181 141.0366 219.8944 15.12038741  3534
CZ-2C DEB               
1 67587U 26009D   26038.17553074  .00063379  00000+0  30481-2 0  9996
2 67587  97.6720 113.0106 0107833 148.0195 212.7642 15.13487858  3476
NAVSTAR 85 (USA 581)    
1 67588U 26017A   26037.57048658 -.00000033  00000+0  00000+0 0  9996
2 67588  55.0007  93.9975 0000865  80.8749 279.2003  2.00561517428992
STARLINK-36641          
1 67589U 26018A   26038.58335648 -.01649770  00000+0 -67463-2 0  9996
2 67589  97.2803 102.7986 0001340  91.5460 191.6931 15.88737250  2505
STARLINK-36376          
1 67590U 26018B   26038.58335648 -.01647610  00000+0 -66740-2 0  9996
2 67590  97.2799 102.8002 0001327  89.1548 197.8084 15.88921592  2552
STARLINK-36391          
1 67591U 26018C   26038.58335648 -.01644912  00000+0 -65870-2 0  9992
2 67591  97.2798 102.8021 0001307  98.5664 192.7855 15.89144907  2552
STARLINK-36603          
1 67592U 26018D   26038.58335648 -.01639138  00000+0 -65133-2 0  9999
2 67592  97.2797 102.8032 0001323  97.4735 196.8945 15.89287636  2517
STARLINK-36634          
1 67593U 26018E   26038.58335648 -.01846507  91558-3 -64164-2 0  9995
2 67593  97.2795 102.8052 0001347  88.5035 210.4139 15.89517466  2502
STARLINK-36638          
1 67594U 26018F   26038.58335648 -.01838474  91011-3 -63191-2 0  9993
2 67594  97.2793 102.8070 0001341  88.7406 214.5295 15.89734817  2508
STARLINK-36628          
1 67595U 26018G   26038.58335648 -.01839594  91258-3 -62726-2 0  9994
2 67595  97.2788 102.8082 0001292  93.3239 213.1967 15.89894939  2500
